start=new Date('2022-01-31T00:00:00.000Z').valueOf();
sats=[{"COUNTRY_CODE":"US","REV_AT_EPOCH":"5504","TLE_LINE2":"2 47598  53.0546 259.8296 0001925  72.7925 287.3274 15.06400135 55040","EPOCH":"2022-01-30T22:16:06.442176","BSTAR":"0.00003773400000","ECCENTRICITY":"0.00019250","ELEMENT_SET_NO":"999","NORAD_CAT_ID":"47598","SEMIMAJOR_AXIS":"6925.348","MEAN_ELEMENT_THEORY":"SGP4","DECAY_DATE":null,"APOAPSIS":"548.546","EPHEMERIS_TYPE":"0","ARG_OF_PERICENTER":"72.7925","TIME_SYSTEM":"UTC","RA_OF_ASC_NODE":"259.8296","INCLINATION":"53.0546","MEAN_MOTION_DOT":"0.00000280","GP_ID":"194982411","SITE":"AFETR","REF_FRAME":"TEME","OBJECT_TYPE":"PAYLOAD","CENTER_NAME":"EARTH","MEAN_MOTION":"15.06400135","PERIAPSIS":"545.880","FILE":"3287903","OBJECT_NAME":"STARLINK-2003","PERIOD":"95.592","TLE_LINE1":"1 47598U 21009BC  22030.92785234  .00000280  00000-0  37734-4 0  9990","RCS_SIZE":"LARGE","OBJECT_ID":"2021-009BC","MEAN_ANOMALY":"287.3274","LAUNCH_DATE":"2021-02-04","MEAN_MOTION_DDOT":"0.0000000000000","CLASSIFICATION_TYPE":"U"},{"DECAY_DATE":null,"TIME_SYSTEM":"UTC","APOAPSIS":"548.577","EPHEMERIS_TYPE":"0","ARG_OF_PERICENTER":"70.3091","INCLINATION":"53.0536","RA_OF_ASC_NODE":"249.8743","MEAN_MOTION_DOT":"0.00000220","GP_ID":"194983163","SITE":"AFETR","TLE_LINE2":"2 47599  53.0536 249.8743 0001994  70.3091 289.8113 15.06405707 55173","REV_AT_EPOCH":"5517","COUNTRY_CODE":"US","EPOCH":"2022-01-30T22:01:30.506880","NORAD_CAT_ID":"47599","SEMIMAJOR_AXIS":"6925.331","MEAN_ELEMENT_THEORY":"SGP4","ELEMENT_SET_NO":"999","BSTAR":"0.00003366000000","ECCENTRICITY":"0.00019940","LAUNCH_DATE":"2021-02-04","MEAN_MOTION_DDOT":"0.0000000000000","CLASSIFICATION_TYPE":"U","REF_FRAME":"TEME","CENTER_NAME":"EARTH","OBJECT_TYPE":"PAYLOAD","PERIAPSIS":"545.815","MEAN_MOTION":"15.06405707","OBJECT_NAME":"STARLINK-2004","FILE":"3287903","TLE_LINE1":"1 47599U 21009BD  22030.91771420  .00000220  00000-0  33660-4 0  9990","PERIOD":"95.592","OBJECT_ID":"2021-009BD","MEAN_ANOMALY":"289.8113","RCS_SIZE":"LARGE"},{"INCLINATION":"53.0550","RA_OF_ASC_NODE":"250.0474","DECAY_DATE":null,"EPHEMERIS_TYPE":"0","APOAPSIS":"551.406","ARG_OF_PERICENTER":"115.7671","TIME_SYSTEM":"UTC","GP_ID":"194983913","SITE":"AFETR","MEAN_MOTION_DOT":"0.00002392","COUNTRY_CODE":"US","TLE_LINE2":"2 47600  53.0550 250.0474 0006073 115.7671 244.3946 15.06404228 55175","REV_AT_EPOCH":"5517","ECCENTRICITY":"0.00060730","BSTAR":"0.00017944000000","ELEMENT_SET_NO":"999","NORAD_CAT_ID":"47600","SEMIMAJOR_AXIS":"6925.336","MEAN_ELEMENT_THEORY":"SGP4","EPOCH":"2022-01-30T21:07:04.109952","LAUNCH_DATE":"2021-02-04","CLASSIFICATION_TYPE":"U","MEAN_MOTION_DDOT":"0.0000000000000","PERIAPSIS":"542.995","MEAN_MOTION":"15.06404228","REF_FRAME":"TEME","OBJECT_TYPE":"PAYLOAD","CENTER_NAME":"EARTH","RCS_SIZE":"LARGE","MEAN_ANOMALY":"244.3946","OBJECT_ID":"2021-009BE","FILE":"3287903","OBJECT_NAME":"STARLINK-2005","TLE_LINE1":"1 47600U 21009BE  22030.87990868  .00002392  00000-0  17944-3 0  9995","PERIOD":"95.592"},{"RA_OF_ASC_NODE":"249.8575","INCLINATION":"53.0554","DECAY_DATE":null,"APOAPSIS":"548.517","ARG_OF_PERICENTER":"72.3829","EPHEMERIS_TYPE":"0","TIME_SYSTEM":"UTC","GP_ID":"194982661","SITE":"AFETR","MEAN_MOTION_DOT":"0.00000341","COUNTRY_CODE":"US","TLE_LINE2":"2 47601  53.0554 249.8575 0001848  72.3829 287.7362 15.06392238 55176","REV_AT_EPOCH":"5517","ELEMENT_SET_NO":"999","BSTAR":"0.00004178200000","ECCENTRICITY":"0.00018480","NORAD_CAT_ID":"47601","SEMIMAJOR_AXIS":"6925.372","MEAN_ELEMENT_THEORY":"SGP4","EPOCH":"2022-01-30T22:06:49.361760","LAUNCH_DATE":"2021-02-04","CLASSIFICATION_TYPE":"U","MEAN_MOTION_DDOT":"0.0000000000000","PERIAPSIS":"545.958","MEAN_MOTION":"15.06392238","REF_FRAME":"TEME","OBJECT_TYPE":"PAYLOAD","CENTER_NAME":"EARTH","RCS_SIZE":"LARGE","MEAN_ANOMALY":"287.7362","OBJECT_ID":"2021-009BF","FILE":"3287903","OBJECT_NAME":"STARLINK-2006","PERIOD":"95.593","TLE_LINE1":"1 47601U 21009BF  22030.92140465  .00000341  00000-0  41782-4 0  9992"},{"LAUNCH_DATE":"2021-02-04","MEAN_MOTION_DDOT":"0.0000000000000","CLASSIFICATION_TYPE":"U","REF_FRAME":"TEME","CENTER_NAME":"EARTH","OBJECT_TYPE":"PAYLOAD","MEAN_MOTION":"15.06399420","PERIAPSIS":"546.003","OBJECT_NAME":"STARLINK-2007","FILE":"3287903","PERIOD":"95.592","TLE_LINE1":"1 47602U 21009BG  22030.87624081  .00002312  00000-0  17404-3 0  9991","OBJECT_ID":"2021-009BG","MEAN_ANOMALY":"292.2499","RCS_SIZE":"LARGE","DECAY_DATE":null,"TIME_SYSTEM":"UTC","EPHEMERIS_TYPE":"0","APOAPSIS":"548.428","ARG_OF_PERICENTER":"67.8676","INCLINATION":"53.0552","RA_OF_ASC_NODE":"260.0482","MEAN_MOTION_DOT":"0.00002312","GP_ID":"194982911","SITE":"AFETR","TLE_LINE2":"2 47602  53.0552 260.0482 0001751  67.8676 292.2499 15.06399420 55025","REV_AT_EPOCH":"5502","COUNTRY_CODE":"US","EPOCH":"2022-01-30T21:01:47.205984","SEMIMAJOR_AXIS":"6925.350","NORAD_CAT_ID":"47602","MEAN_ELEMENT_THEORY":"SGP4","BSTAR":"0.00017404000000","ELEMENT_SET_NO":"999","ECCENTRICITY":"0.00017510"},{"TLE_LINE2":"2 47603  53.0548 289.6958 0001884  59.1335 300.9839 15.06401289 54615","REV_AT_EPOCH":"5461","COUNTRY_CODE":"US","EPOCH":"2022-01-30T22:54:33.951168","NORAD_CAT_ID":"47603","SEMIMAJOR_AXIS":"6925.345","MEAN_ELEMENT_THEORY":"SGP4","BSTAR":"0.00006768400000","ELEMENT_SET_NO":"999","ECCENTRICITY":"0.00018840","DECAY_DATE":null,"TIME_SYSTEM":"UTC","APOAPSIS":"548.514","EPHEMERIS_TYPE":"0","ARG_OF_PERICENTER":"59.1335","RA_OF_ASC_NODE":"289.6958","INCLINATION":"53.0548","MEAN_MOTION_DOT":"0.00000727","GP_ID":"194983663","SITE":"AFETR","REF_FRAME":"TEME","CENTER_NAME":"EARTH","OBJECT_TYPE":"PAYLOAD","PERIAPSIS":"545.905","MEAN_MOTION":"15.06401289","OBJECT_NAME":"STARLINK-2008","FILE":"3287903","TLE_LINE1":"1 47603U 21009BH  22030.95455962  .00000727  00000-0  67684-4 0  9995","PERIOD":"95.592","MEAN_ANOMALY":"300.9839","OBJECT_ID":"2021-009BH","RCS_SIZE":"LARGE","LAUNCH_DATE":"2021-02-04","MEAN_MOTION_DDOT":"0.0000000000000","CLASSIFICATION_TYPE":"U"},{"MEAN_MOTION_DDOT":"0.0000000000000","CLASSIFICATION_TYPE":"U","LAUNCH_DATE":"2021-02-04","FILE":"3287903","OBJECT_NAME":"STARLINK-2021","PERIOD":"95.593","TLE_LINE1":"1 47604U 21009BJ  22030.88361785  .00000826  00000-0  74369-4 0  9995","RCS_SIZE":"LARGE","MEAN_ANOMALY":"287.4143","OBJECT_ID":"2021-009BJ","REF_FRAME":"TEME","OBJECT_TYPE":"PAYLOAD","CENTER_NAME":"EARTH","MEAN_MOTION":"15.06393921","PERIAPSIS":"545.986","MEAN_MOTION_DOT":"0.00000826","GP_ID":"194983414","SITE":"AFETR","DECAY_DATE":null,"APOAPSIS":"548.478","ARG_OF_PERICENTER":"72.7042","EPHEMERIS_TYPE":"0","TIME_SYSTEM":"UTC","RA_OF_ASC_NODE":"260.0205","INCLINATION":"53.0531","EPOCH":"2022-01-30T21:12:24.582240","ECCENTRICITY":"0.00017990","BSTAR":"0.00007436900000","ELEMENT_SET_NO":"999","NORAD_CAT_ID":"47604","SEMIMAJOR_AXIS":"6925.367","MEAN_ELEMENT_THEORY":"SGP4","COUNTRY_CODE":"US","TLE_LINE2":"2 47604  53.0531 260.0205 0001799  72.7042 287.4143 15.06393921 55034","REV_AT_EPOCH":"5503"},{"LAUNCH_DATE":"2021-02-04","MEAN_MOTION_DDOT":"0.0000000000000","CLASSIFICATION_TYPE":"U","OBJECT_TYPE":"PAYLOAD","CENTER_NAME":"EARTH","REF_FRAME":"TEME","MEAN_MOTION":"15.61198263","PERIAPSIS":"382.128","PERIOD":"92.237","TLE_LINE1":"1 47605U 21009BK  22030.85421958  .00035971  00000-0  42147-3 0  9999","FILE":"3287903","OBJECT_NAME":"STARLINK-2023","RCS_SIZE":"LARGE","OBJECT_ID":"2021-009BK","MEAN_ANOMALY":"226.5386","APOAPSIS":"386.265","ARG_OF_PERICENTER":"133.5881","EPHEMERIS_TYPE":"0","TIME_SYSTEM":"UTC","DECAY_DATE":null,"RA_OF_ASC_NODE":"239.2800","INCLINATION":"53.0484","MEAN_MOTION_DOT":"0.00035971","SITE":"AFETR","GP_ID":"194982162","COUNTRY_CODE":"US","REV_AT_EPOCH":"5531","TLE_LINE2":"2 47605  53.0484 239.2800 0003059 133.5881 226.5386 15.61198263 55316","EPOCH":"2022-01-30T20:30:04.571712","ECCENTRICITY":"0.00030590","BSTAR":"0.00042147000000","ELEMENT_SET_NO":"999","SEMIMAJOR_AXIS":"6762.332","MEAN_ELEMENT_THEORY":"SGP4","NORAD_CAT_ID":"47605"},{"COUNTRY_CODE":"US","REV_AT_EPOCH":"5504","TLE_LINE2":"2 47606  53.0557 259.7042 0001960  70.1122 290.0078 15.06405585 55047","EPOCH":"2022-01-30T22:53:14.556480","BSTAR":"0.00008340900000","ELEMENT_SET_NO":"999","ECCENTRICITY":"0.00019600","NORAD_CAT_ID":"47606","SEMIMAJOR_AXIS":"6925.331","MEAN_ELEMENT_THEORY":"SGP4","EPHEMERIS_TYPE":"0","APOAPSIS":"548.554","ARG_OF_PERICENTER":"70.1122","TIME_SYSTEM":"UTC","DECAY_DATE":null,"RA_OF_ASC_NODE":"259.7042","INCLINATION":"53.0557","MEAN_MOTION_DOT":"0.00000961","SITE":"AFETR","GP_ID":"194982412","OBJECT_TYPE":"PAYLOAD","CENTER_NAME":"EARTH","REF_FRAME":"TEME","MEAN_MOTION":"15.06405585","PERIAPSIS":"545.839","PERIOD":"95.592","TLE_LINE1":"1 47606U 21009BL  22030.95364070  .00000961  00000-0  83409-4 0  9990","FILE":"3287903","OBJECT_NAME":"STARLINK-2024","RCS_SIZE":"LARGE","MEAN_ANOMALY":"290.0078","OBJECT_ID":"2021-009BL","LAUNCH_DATE":"2021-02-04","MEAN_MOTION_DDOT":"0.0000000000000","CLASSIFICATION_TYPE":"U"},{"MEAN_MOTION_DDOT":"0.0000000000000","CLASSIFICATION_TYPE":"U","LAUNCH_DATE":"2021-02-04","FILE":"3287903","OBJECT_NAME":"STARLINK-2025","PERIOD":"95.592","TLE_LINE1":"1 47607U 21009BM  22030.93154314  .00005050  00000-0  35760-3 0  9997","RCS_SIZE":"LARGE","MEAN_ANOMALY":"295.6908","OBJECT_ID":"2021-009BM","REF_FRAME":"TEME","OBJECT_TYPE":"PAYLOAD","CENTER_NAME":"EARTH","MEAN_MOTION":"15.06404517","PERIAPSIS":"546.070","MEAN_MOTION_DOT":"0.00005050","GP_ID":"194983164","SITE":"AFETR","DECAY_DATE":null,"APOAPSIS":"548.329","ARG_OF_PERICENTER":"64.4250","EPHEMERIS_TYPE":"0","TIME_SYSTEM":"UTC","RA_OF_ASC_NODE":"259.8002","INCLINATION":"53.0517","EPOCH":"2022-01-30T22:21:25.327296","BSTAR":"0.00035760000000","ELEMENT_SET_NO":"999","ECCENTRICITY":"0.00016310","SEMIMAJOR_AXIS":"6925.335","NORAD_CAT_ID":"47607","MEAN_ELEMENT_THEORY":"SGP4","COUNTRY_CODE":"US","TLE_LINE2":"2 47607  53.0517 259.8002 0001631  64.4250 295.6908 15.06404517 55030","REV_AT_EPOCH":"5503"}];
